GSAT0201 (GALILEO 5)    
1 40128U 14050A   23239.25807119 -.00000050  00000+0  00000+0 0  9991
2 40128  49.9425 314.8908 1609272 140.0678 232.9777  1.85519036 59308
GSAT0202 (GALILEO 6)    
1 40129U 14050B   23239.51748692 -.00000047  00000+0  00000+0 0  9997
2 40129  49.9616 313.9518 1607130 140.8892 231.9301  1.85519693 61477
IRNSS-1C                
1 40269U 14061A   23240.12018244 -.00000171  00000+0  00000+0 0  9994
2 40269   3.9462 112.9353 0020150  16.6557 332.7833  1.00271913 32557
NAVSTAR 72 (USA 258)    
1 40294U 14068A   23238.84663648  .00000004  00000+0  00000+0 0  9993
2 40294  56.1692  70.7931 0049029  61.5905 298.9733  2.00571178 64649
COSMOS 2501             
1 40315U 14075A   23240.37680546  .00000073  00000+0  00000+0 0  9998
2 40315  63.6408 225.9022 0020134 211.5659 148.3194  2.13101297 68036
NAVSTAR 73 (USA 260)    
1 40534U 15013A   23239.97920355  .00000069  00000+0  00000+0 0  9998
2 40534  53.4678 246.5951 0080045  25.1799 335.2442  2.00555088 61703
GSAT0203 (GALILEO 7)    
1 40544U 15017A   23238.86405241 -.00000077  00000+0  00000+0 0  9992
2 40544  56.9042   9.5026 0002800 222.0197 137.9629  1.70476038 51728
GSAT0204 (GALILEO 8)    
1 40545U 15017B   23239.70423556 -.00000079  00000+0  00000+0 0  9998
2 40545  56.9101   9.4940 0003238 203.9371 156.0497  1.70475589 52408
IRNSS-1D                
1 40547U 15018A   23239.48105146 -.00000255  00000+0  00000+0 0  9994
2 40547  28.0887 257.7676 0020454 191.5583 171.0060  1.00267112 30718
BEIDOU-3S IGSO-1S       
1 40549U 15019A   23240.10400601 -.00000149  00000+0  00000+0 0  9994
2 40549  51.1130 307.6589 0040748 195.7879 324.3203  1.00257203 30811
NAVSTAR 74 (USA 262)    
1 40730U 15033A   23239.14362001 -.00000026  00000+0  00000+0 0  9999
2 40730  54.8522 309.0643 0084970  14.0102 346.2921  2.00555628 59434
BEIDOU-3S M2S           
1 40748U 15037A   23238.74137779 -.00000080  00000+0  00000+0 0  9999
2 40748  55.6676 337.0589 0010858 239.8770 120.0489  1.86233066 55024
BEIDOU-3S M1S           
1 40749U 15037B   23239.01146625 -.00000080  00000+0  00000+0 0  9991
2 40749  55.6703 337.0360 0002878 304.9511  55.0552  1.86232760 55032
GSAT0205 (GALILEO 9)    
1 40889U 15045A   23239.47220780  .00000073  00000+0  00000+0 0  9991
2 40889  55.3677 249.9136 0003316 357.4939   2.5495  1.70473382 49543
GSAT0206 (GALILEO 10)   
1 40890U 15045B   23240.27947809  .00000067  00000+0  00000+0 0  9994
2 40890  55.3664 249.8868 0002372 323.0979  36.9274  1.70473361 49583
BEIDOU-3S IGSO-2S       
1 40938U 15053A   23240.41729274 -.00000078  00000+0  00000+0 0  9999
2 40938  50.8198 270.8259 0047827 194.4614 117.1000  1.00284549 29089
NAVSTAR 75 (USA 265)    
1 41019U 15062A   23239.69515299  .00000006  00000+0  00000+0 0  9998
2 41019  56.1541  70.6094 0088779 221.0266 138.3712  2.00562235 57285
GSAT-15                 
1 41028U 15065A   23240.05082543 -.00000265  00000+0  00000+0 0  9992
2 41028   0.0798 274.6413 0002232 205.5139 327.6564  1.00270095 28593
GSAT0209 (GALILEO 12)   
1 41174U 15079A   23239.27798926 -.00000004  00000+0  00000+0 0  9991
2 41174  55.2968 129.4217 0003300 326.9179  33.1235  1.70473853 47885
GSAT0208 (GALILEO 11)   
1 41175U 15079B   23239.49760462 -.00000004  00000+0  00000+0 0  9990
2 41175  55.2950 129.4138 0002609 331.4168  28.6318  1.70473764 47881
IRNSS-1E                
1 41241U 16003A   23239.98268674 -.00000302  00000+0  00000+0 0  9995
2 41241  30.9590  77.9067 0019930 173.7667 189.8228  1.00268647 27938
NAVSTAR 76 (USA 266)    
1 41328U 16007A   23239.28914125 -.00000006  00000+0  00000+0 0  9998
2 41328  55.0142 130.1703 0071317 233.9800 125.4146  2.00575853 55284
COSMOS 2514             
1 41330U 16008A   23238.95029758 -.00000067  00000+0  00000+0 0  9991
2 41330  65.5062 347.9622 0011481 205.5371 154.4278  2.13102473 58779
IRNSS-1F                
1 41384U 16015A   23240.25367514  .00000149  00000+0  00000+0 0  9999
2 41384   2.9181 130.1612 0018224 176.9837 152.6926  1.00267380 27394
BEIDOU-2 IGSO-6         
1 41434U 16021A   23239.33507498 -.00000129  00000+0  00000+0 0  9995
2 41434  58.7406  48.3474 0047108 217.6815 286.1087  1.00284242 27192
IRNSS-1G                
1 41469U 16027A   23239.83023422 -.00000343  00000+0  00000+0 0  9992
2 41469   2.8096 131.8876 0003776 357.3766 274.9630  1.00267439 26905
GSAT0211 (GALILEO 14)   
1 41549U 16030A   23239.61857415  .00000072  00000+0  00000+0 0  9996
2 41549  55.5140 249.8845 0003936 307.4935  52.5153  1.70473479 45188
GSAT0210 (GALILEO 13)   
1 41550U 16030B   23238.15035376  .00000077  00000+0  00000+0 0  9995
2 41550  55.5140 249.9261 0004227 273.2450  86.7530  1.70473653 45170
COSMOS 2516             
1 41554U 16032A   23238.12676964  .00000100  00000+0  00000+0 0  9999
2 41554  63.8675 226.3789 0015536 214.7613 145.1534  2.13106405 56362
BEIDOU-2 G7             
1 41586U 16037A   23240.14888559 -.00000362  00000+0  00000+0 0  9990
2 41586   1.8521  68.3329 0007658 348.2281  83.6900  1.00274419 26516
EUTELSAT 117 WEST B     
1 41589U 16038B   23240.00888053 -.00000019  00000+0  00000+0 0  9997
2 41589   0.0059 311.2977 0000223 343.0109 287.8574  1.00271059 26431
GSAT0207 (GALILEO 15)   
1 41859U 16069A   23238.39866786 -.00000004  00000+0  00000+0 0  9993
2 41859  54.9589 129.5201 0003323 307.1286  52.9007  1.70473805 41910
GSAT0212 (GALILEO 16)   
1 41860U 16069B   23239.42650840 -.00000005  00000+0  00000+0 0  9993
2 41860  54.9569 129.4883 0002568 348.4940  11.5624  1.70474049 42187
GSAT0213 (GALILEO 17)   
1 41861U 16069C   23239.20593235 -.00000005  00000+0  00000+0 0  9994
2 41861  54.9592 129.5005 0002978 279.6844  80.3433  1.70472670 42049
GSAT0214 (GALILEO 18)   
1 41862U 16069D   23239.93975426 -.00000004  00000+0  00000+0 0  9990
2 41862  54.9581 129.4741 0002086 288.5937  71.4480  1.70472625 42184
SES-15                  
1 42709U 17026A   23240.42618753  .00000050  00000+0  00000+0 0  9998
2 42709   0.0200  44.0369 0001032 108.4343 208.1896  1.00276126 23926
QZS-2 (MICHIBIKI-2)     
1 42738U 17028A   23239.91533125 -.00000097  00000+0  00000+0 0  9995
2 42738  41.0556 257.9711 0752927 269.9844 278.8095  1.00266959 22868
QZS-3 (MICHIBIKI-3)     
1 42917U 17048A   23239.98581955 -.00000355  00000+0  00000+0 0  9994
2 42917   0.0751 223.7765 0002108 302.9088 291.1622  1.00275593 22099
COSMOS 2522             
1 42939U 17055A   23239.26140673  .00000090  00000+0  00000+0 0  9990
2 42939  64.1016 226.8626 0010034 243.2516 116.6594  2.13101950 46138
QZS-4 (MICHIBIKI-4)     
1 42965U 17062A   23240.20146156 -.00000311  00000+0  00000+0 0  9992
2 42965  40.6390 356.5375 0747168 269.1467 282.2906  1.00282258 21530
BEIDOU-3 M1             
1 43001U 17069A   23240.16271203  .00000017  00000+0  00000+0 0  9990
2 43001  55.8361  97.0662 0008054 301.6730  58.3423  1.86231370 39531
BEIDOU-3 M2             
1 43002U 17069B   23240.08799380  .00000017  00000+0  00000+0 0  9993
2 43002  55.8348  97.1063 0007000 333.3785  19.0186  1.86231302 39518
GSAT0215 (GALILEO 19)   
1 43055U 17079A   23239.25540045  .00000074  00000+0  00000+0 0  9994
2 43055  55.4906 249.7207 0003769 267.6858  92.3163  1.70474145 35517
GSAT0216 (GALILEO 20)   
1 43056U 17079B   23237.20099100  .00000076  00000+0  00000+0 0  9991
2 43056  55.4917 249.7772 0005326 273.3466  86.6371  1.70474333 35490
GSAT0217 (GALILEO 21)   
1 43057U 17079C   23239.76767495  .00000071  00000+0  00000+0 0  9999
2 43057  55.4896 249.7053 0004640 284.2582  75.7339  1.70474239 35529
GSAT0218 (GALILEO 22)   
1 43058U 17079D   23239.40114749  .00000073  00000+0  00000+0 0  9991
2 43058  55.4891 249.7130 0005777 270.9391  89.0395  1.70474194 35545
BEIDOU-3 M7             
1 43107U 18003A   23240.34575601 -.00000082  00000+0  00000+0 0  9998
2 43107  55.1225 337.7245 0004335  79.1534 253.1458  1.86232435 38285
BEIDOU-3 M8             
1 43108U 18003B   23239.25133340 -.00000081  00000+0  00000+0 0  9996
2 43108  55.1163 337.7489 0003764 241.3714 118.6233  1.86230830 38277
BEIDOU-3 M4             
1 43207U 18018A   23239.15681255  .00000011  00000+0  00000+0 0  9996
2 43207  55.7940  97.1992 0005005  10.0167 350.0834  1.86231335 37656
BEIDOU-3 M3             
1 43208U 18018B   23239.22346184  .00000011  00000+0  00000+0 0  9994
2 43208  55.7935  97.2014 0006105 318.5340  41.5100  1.86231215 37653
BEIDOU-3 M9             
1 43245U 18029A   23239.44630164 -.00000078  00000+0  00000+0 0  9999
2 43245  55.0180 335.4901 0001218 203.1973 156.8329  1.86232366 36810
BEIDOU-3 M10            
1 43246U 18029B   23239.37635135 -.00000078  00000+0  00000+0 0  9995
2 43246  55.0150 335.5207 0002711   1.6147 358.4218  1.86232818 36797
IRNSS-1I                
1 43286U 18035A   23239.68472135  .00000077  00000+0  00000+0 0  9997
2 43286  29.2315  90.3161 0019069 176.8962  10.0757  1.00269076 19798
COSMOS 2527             
1 43508U 18053A   23239.22010216  .00000027  00000+0  00000+0 0  9997
2 43508  65.0884 108.2223 0007377 221.7008 138.3305  2.13102372 40430
BEIDOU-2 IGSO-7         
1 43539U 18057A   23238.74285490 -.00000152  00000+0  00000+0 0  9999
2 43539  55.1212 171.9348 0064588 231.4172 311.7710  1.00286147 18868
GSAT0221 (GALILEO 25)   
1 43564U 18060A   23239.30082196 -.00000077  00000+0  00000+0 0  9998
2 43564  57.2847   9.4169 0002401 252.8311 107.1454  1.70475940 31693
GSAT0222 (GALILEO 26)   
1 43565U 18060B   23240.10547790 -.00000081  00000+0  00000+0 0  9990
2 43565  57.2882   9.3963 0003146 206.6357 153.3488  1.70475666 31750
GSAT0219 (GALILEO 23)   
1 43566U 18060C   23238.56807338 -.00000075  00000+0  00000+0 0  9998
2 43566  57.2872   9.4397 0001431 256.9537 103.0349  1.70475942 31705
GSAT0220 (GALILEO 24)   
1 43567U 18060D   23238.78847856 -.00000076  00000+0  00000+0 0  9993
2 43567  57.2869   9.4346 0001742 248.2487 111.7368  1.70475627 31694
BEIDOU-3 M5             
1 43581U 18062A   23238.52277507  .00000076  00000+0  00000+0 0  9992
2 43581  54.1800 217.2132 0005505 278.5374  81.3914  1.86231811 34532
